IRIDIUM 921             
1 24873U 97034E   24164.83417611  .00032180  00000+0  82442-3 0  9991
2 24873  86.3803 290.2695 0002896 247.1762 112.9186 15.39234801474516
IRIDIUM 26              
1 24903U 97043A   24165.56706321  .00000622  00000+0  20586-3 0  9992
2 24903  86.3956 265.2725 0002024  98.1668 261.9759 14.36398446404287
IRIDIUM 22              
1 24907U 97043E   24165.55020961  .00000598  00000+0  20208-3 0  9997
2 24907  86.3958 268.5146 0002202  93.6273 266.5175 14.35286668403874
DUMMY MASS 1            
1 24925U 97048A   24164.88407606  .00000750  00000+0  82167-4 0  9995
2 24925  86.3334 305.9777 0007748  32.5885 327.5816 14.86240257450264
DUMMY MASS 2            
1 24926U 97048B   24165.12202487  .00000735  00000+0  80966-4 0  9992
2 24926  86.3334 307.4105 0008889  39.8197 320.3678 14.85998470450320
IRIDIUM 29              
1 24944U 97051A   24164.92696767  .00000694  00000+0  23340-3 0  9997
2 24944  86.3943 298.6903 0002243  86.7815 273.3638 14.35733872400279
IRIDIUM 33              
1 24946U 97051C   24165.43802628  .00000549  00000+0  18815-3 0  9991
2 24946  86.3859 297.7274 0007472 186.5362 173.5738 14.34386473399889
IRIDIUM 28              
1 24948U 97051E   24165.42123958  .00000718  00000+0  23727-3 0  9990
2 24948  86.3949 296.2081 0001938 103.4738 256.6675 14.36688321400950
